<?xml version="1.0" encoding="UTF-8"?>
<kml xmlns="http://www.opengis.net/kml/2.2">
  <Document>
    <name>Untitled map</name>
    <description/>
    <Style id="icon-1603-558B2F-nodesc-normal">
      <IconStyle>
        <color>ff2f8b55</color>
        <scale>1</scale>
        <Icon>
          <href>https://www.gstatic.com/mapspro/images/stock/503-wht-blank_maps.png</href>
        </Icon>
      </IconStyle>
      <LabelStyle>
        <scale>0</scale>
      </LabelStyle>
      <BalloonStyle>
        <text><![CDATA[<h3>$[name]</h3>]]></text>
      </BalloonStyle>
    </Style>
    <Style id="icon-1603-558B2F-nodesc-highlight">
      <IconStyle>
        <color>ff2f8b55</color>
        <scale>1</scale>
        <Icon>
          <href>https://www.gstatic.com/mapspro/images/stock/503-wht-blank_maps.png</href>
        </Icon>
      </IconStyle>
      <LabelStyle>
        <scale>1</scale>
      </LabelStyle>
      <BalloonStyle>
        <text><![CDATA[<h3>$[name]</h3>]]></text>
      </BalloonStyle>
    </Style>
    <StyleMap id="icon-1603-558B2F-nodesc">
      <Pair>
        <key>normal</key>
        <styleUrl>#icon-1603-558B2F-nodesc-normal</styleUrl>
      </Pair>
      <Pair>
        <key>highlight</key>
        <styleUrl>#icon-1603-558B2F-nodesc-highlight</styleUrl>
      </Pair>
    </StyleMap>
    <Style id="icon-1899-0288D1-nodesc-normal">
      <IconStyle>
        <color>ffd18802</color>
        <scale>1</scale>
        <Icon>
          <href>https://www.gstatic.com/mapspro/images/stock/503-wht-blank_maps.png</href>
        </Icon>
        <hotSpot x="32" xunits="pixels" y="64" yunits="insetPixels"/>
      </IconStyle>
      <LabelStyle>
        <scale>0</scale>
      </LabelStyle>
      <BalloonStyle>
        <text><![CDATA[<h3>$[name]</h3>]]></text>
      </BalloonStyle>
    </Style>
    <Style id="icon-1899-0288D1-nodesc-highlight">
      <IconStyle>
        <color>ffd18802</color>
        <scale>1</scale>
        <Icon>
          <href>https://www.gstatic.com/mapspro/images/stock/503-wht-blank_maps.png</href>
        </Icon>
        <hotSpot x="32" xunits="pixels" y="64" yunits="insetPixels"/>
      </IconStyle>
      <LabelStyle>
        <scale>1</scale>
      </LabelStyle>
      <BalloonStyle>
        <text><![CDATA[<h3>$[name]</h3>]]></text>
      </BalloonStyle>
    </Style>
    <StyleMap id="icon-1899-0288D1-nodesc">
      <Pair>
        <key>normal</key>
        <styleUrl>#icon-1899-0288D1-nodesc-normal</styleUrl>
      </Pair>
      <Pair>
        <key>highlight</key>
        <styleUrl>#icon-1899-0288D1-nodesc-highlight</styleUrl>
      </Pair>
    </StyleMap>
    <Style id="icon-1899-DB4436-nodesc-normal">
      <IconStyle>
        <color>ff3644db</color>
        <scale>1</scale>
        <Icon>
          <href>https://www.gstatic.com/mapspro/images/stock/503-wht-blank_maps.png</href>
        </Icon>
        <hotSpot x="32" xunits="pixels" y="64" yunits="insetPixels"/>
      </IconStyle>
      <LabelStyle>
        <scale>0</scale>
      </LabelStyle>
      <BalloonStyle>
        <text><![CDATA[<h3>$[name]</h3>]]></text>
      </BalloonStyle>
    </Style>
    <Style id="icon-1899-DB4436-nodesc-highlight">
      <IconStyle>
        <color>ff3644db</color>
        <scale>1</scale>
        <Icon>
          <href>https://www.gstatic.com/mapspro/images/stock/503-wht-blank_maps.png</href>
        </Icon>
        <hotSpot x="32" xunits="pixels" y="64" yunits="insetPixels"/>
      </IconStyle>
      <LabelStyle>
        <scale>1</scale>
      </LabelStyle>
      <BalloonStyle>
        <text><![CDATA[<h3>$[name]</h3>]]></text>
      </BalloonStyle>
    </Style>
    <StyleMap id="icon-1899-DB4436-nodesc">
      <Pair>
        <key>normal</key>
        <styleUrl>#icon-1899-DB4436-nodesc-normal</styleUrl>
      </Pair>
      <Pair>
        <key>highlight</key>
        <styleUrl>#icon-1899-DB4436-nodesc-highlight</styleUrl>
      </Pair>
    </StyleMap>
    <Style id="icon-1899-E65100-nodesc-normal">
      <IconStyle>
        <color>ff0051e6</color>
        <scale>1</scale>
        <Icon>
          <href>https://www.gstatic.com/mapspro/images/stock/503-wht-blank_maps.png</href>
        </Icon>
        <hotSpot x="32" xunits="pixels" y="64" yunits="insetPixels"/>
      </IconStyle>
      <LabelStyle>
        <scale>0</scale>
      </LabelStyle>
      <BalloonStyle>
        <text><![CDATA[<h3>$[name]</h3>]]></text>
      </BalloonStyle>
    </Style>
    <Style id="icon-1899-E65100-nodesc-highlight">
      <IconStyle>
        <color>ff0051e6</color>
        <scale>1</scale>
        <Icon>
          <href>https://www.gstatic.com/mapspro/images/stock/503-wht-blank_maps.png</href>
        </Icon>
        <hotSpot x="32" xunits="pixels" y="64" yunits="insetPixels"/>
      </IconStyle>
      <LabelStyle>
        <scale>1</scale>
      </LabelStyle>
      <BalloonStyle>
        <text><![CDATA[<h3>$[name]</h3>]]></text>
      </BalloonStyle>
    </Style>
    <StyleMap id="icon-1899-E65100-nodesc">
      <Pair>
        <key>normal</key>
        <styleUrl>#icon-1899-E65100-nodesc-normal</styleUrl>
      </Pair>
      <Pair>
        <key>highlight</key>
        <styleUrl>#icon-1899-E65100-nodesc-highlight</styleUrl>
      </Pair>
    </StyleMap>
    <Style id="line-1267FF-5000-nodesc-normal">
      <LineStyle>
        <color>ffff6712</color>
        <width>5</width>
      </LineStyle>
      <BalloonStyle>
        <text><![CDATA[<h3>$[name]</h3>]]></text>
      </BalloonStyle>
    </Style>
    <Style id="line-1267FF-5000-nodesc-highlight">
      <LineStyle>
        <color>ffff6712</color>
        <width>7.5</width>
      </LineStyle>
      <BalloonStyle>
        <text><![CDATA[<h3>$[name]</h3>]]></text>
      </BalloonStyle>
    </Style>
    <StyleMap id="line-1267FF-5000-nodesc">
      <Pair>
        <key>normal</key>
        <styleUrl>#line-1267FF-5000-nodesc-normal</styleUrl>
      </Pair>
      <Pair>
        <key>highlight</key>
        <styleUrl>#line-1267FF-5000-nodesc-highlight</styleUrl>
      </Pair>
    </StyleMap>
    <Folder>
      <name>Untitled layer</name>
      <Placemark>
        <name>Kodu</name>
        <styleUrl>#icon-1899-0288D1-nodesc</styleUrl>
        <Point>
          <coordinates>
            24.891862,59.4475228,0
          </coordinates>
        </Point>
      </Placemark>
      <Placemark>
        <name>Techno TLN</name>
        <styleUrl>#icon-1899-E65100-nodesc</styleUrl>
        <Point>
          <coordinates>
            24.7054546,59.4115577,0
          </coordinates>
        </Point>
      </Placemark>
      <Placemark>
        <name>Point 4</name>
        <styleUrl>#icon-1603-558B2F-nodesc</styleUrl>
        <Point>
          <coordinates>
            24.8917837,59.4475273,0
          </coordinates>
        </Point>
      </Placemark>
    </Folder>
    <Folder>
      <name>Directions from Kodu to Techno TLN</name>
      <Placemark>
        <name>Directions from Kodu to Techno TLN</name>
        <styleUrl>#line-1267FF-5000-nodesc</styleUrl>
        <LineString>
          <tessellate>1</tessellate>
          <coordinates>
            24.89188,59.44753,0
            24.89184,59.44758,0
            24.89197,59.4476,0
            24.89294,59.4478,0
            24.89324,59.44786,0
            24.89374,59.44797,0
            24.89394,59.44801,0
            24.89424,59.44807,0
            24.8946,59.44814,0
            24.89476,59.44818,0
            24.89481,59.44819,0
            24.895,59.44822,0
            24.89514,59.44824,0
            24.89524,59.44826,0
            24.89535,59.44826,0
            24.89553,59.44827,0
            24.8957,59.44825,0
            24.89583,59.44823,0
            24.89593,59.44822,0
            24.896,59.4482,0
            24.89611,59.44817,0
            24.89616,59.44815,0
            24.89623,59.44812,0
            24.89632,59.44806,0
            24.89642,59.448,0
            24.89648,59.44795,0
            24.89651,59.44791,0
            24.89726,59.44701,0
            24.89728,59.44693,0
            24.89732,59.44688,0
            24.89733,59.4468,0
            24.8973,59.44675,0
            24.89726,59.4467,0
            24.8971,59.44659,0
            24.89635,59.44644,0
            24.89613,59.4464,0
            24.89601,59.44638,0
            24.89564,59.44631,0
            24.89555,59.44629,0
            24.89547,59.44628,0
            24.89495,59.44618,0
            24.89294,59.44582,0
            24.89227,59.4457,0
            24.89162,59.44558,0
            24.89161,59.44558,0
            24.89096,59.44546,0
            24.89073,59.44541,0
            24.89043,59.44535,0
            24.89021,59.44531,0
            24.88974,59.44522,0
            24.88926,59.44513,0
            24.88844,59.44497,0
            24.88784,59.44483,0
            24.88683,59.44461,0
            24.88673,59.44459,0
            24.8857,59.44439,0
            24.88475,59.44421,0
            24.88339,59.44394,0
            24.88319,59.4439,0
            24.88276,59.44382,0
            24.88267,59.4438,0
            24.88213,59.4437,0
            24.88187,59.44365,0
            24.88162,59.4436,0
            24.88154,59.44359,0
            24.88099,59.4435,0
            24.88065,59.44345,0
            24.88058,59.44345,0
            24.87975,59.44336,0
            24.87889,59.4433,0
            24.87842,59.44327,0
            24.87784,59.44325,0
            24.87682,59.44323,0
            24.87658,59.44322,0
            24.87642,59.44322,0
            24.87619,59.44321,0
            24.87511,59.44321,0
            24.87435,59.44318,0
            24.87296,59.44311,0
            24.87231,59.44305,0
            24.87213,59.44304,0
            24.872,59.44304,0
            24.87171,59.44302,0
            24.87154,59.44301,0
            24.87123,59.44298,0
            24.87091,59.44295,0
            24.8708,59.44294,0
            24.87063,59.44292,0
            24.87048,59.4429,0
            24.87034,59.44289,0
            24.87031,59.44288,0
            24.87006,59.44285,0
            24.86985,59.44282,0
            24.86939,59.44276,0
            24.86913,59.44272,0
            24.86907,59.44271,0
            24.86904,59.44271,0
            24.86885,59.44268,0
            24.86864,59.44265,0
            24.8685,59.44263,0
            24.86828,59.4426,0
            24.86804,59.44256,0
            24.86795,59.44255,0
            24.86746,59.44248,0
            24.86703,59.44242,0
            24.86685,59.44239,0
            24.86679,59.44238,0
            24.86664,59.44236,0
            24.8665,59.44234,0
            24.86598,59.44226,0
            24.86562,59.44221,0
            24.86159,59.44168,0
            24.85786,59.44111,0
            24.85755,59.44106,0
            24.85711,59.44101,0
            24.85633,59.44091,0
            24.85557,59.44081,0
            24.85555,59.4408,0
            24.85419,59.44066,0
            24.8537,59.44062,0
            24.8534,59.44059,0
            24.85274,59.44057,0
            24.85166,59.44056,0
            24.85157,59.44055,0
            24.85093,59.44055,0
            24.85092,59.44055,0
            24.85022,59.44056,0
            24.84736,59.44049,0
            24.84649,59.44046,0
            24.8447,59.44039,0
            24.84366,59.44034,0
            24.84231,59.44029,0
            24.84145,59.44025,0
            24.84015,59.44019,0
            24.83919,59.44014,0
            24.83818,59.4401,0
            24.8372,59.44005,0
            24.83604,59.44001,0
            24.83398,59.43993,0
            24.83289,59.43989,0
            24.83123,59.43982,0
            24.83075,59.4398,0
            24.8304,59.43978,0
            24.82987,59.43976,0
            24.82966,59.43975,0
            24.82915,59.43973,0
            24.82858,59.43971,0
            24.8282,59.43969,0
            24.82765,59.43967,0
            24.82752,59.43966,0
            24.82633,59.43961,0
            24.8262,59.43961,0
            24.82604,59.4396,0
            24.82491,59.43955,0
            24.82407,59.43952,0
            24.82329,59.43948,0
            24.82227,59.43945,0
            24.82162,59.43942,0
            24.82115,59.43939,0
            24.82073,59.43936,0
            24.82029,59.43931,0
            24.81993,59.43926,0
            24.81979,59.43924,0
            24.81926,59.43915,0
            24.81884,59.43905,0
            24.81862,59.439,0
            24.81836,59.43893,0
            24.81831,59.43891,0
            24.81799,59.43883,0
            24.8177,59.43876,0
            24.8172,59.43863,0
            24.81662,59.43847,0
            24.81589,59.43826,0
            24.81525,59.43808,0
            24.81373,59.43766,0
            24.81349,59.43759,0
            24.81218,59.43723,0
            24.81115,59.43696,0
            24.81051,59.43681,0
            24.80875,59.43631,0
            24.80742,59.43592,0
            24.80685,59.43576,0
            24.80669,59.43572,0
            24.8064,59.43563,0
            24.80612,59.43554,0
            24.80571,59.43543,0
            24.8057,59.43543,0
            24.80537,59.43534,0
            24.80512,59.43529,0
            24.80486,59.43524,0
            24.80461,59.43519,0
            24.80428,59.43515,0
            24.80405,59.43512,0
            24.80369,59.43508,0
            24.80336,59.43506,0
            24.80293,59.43502,0
            24.80248,59.43501,0
            24.8022,59.43499,0
            24.80181,59.435,0
            24.80149,59.435,0
            24.80116,59.43501,0
            24.80115,59.43501,0
            24.80034,59.43507,0
            24.79929,59.43515,0
            24.79891,59.43517,0
            24.79857,59.43519,0
            24.79814,59.43521,0
            24.79743,59.43525,0
            24.7967,59.43526,0
            24.79669,59.43526,0
            24.79579,59.43523,0
            24.79573,59.43523,0
            24.79564,59.43522,0
            24.79542,59.43519,0
            24.79512,59.43517,0
            24.79485,59.43513,0
            24.79459,59.43511,0
            24.79431,59.43507,0
            24.794,59.43503,0
            24.79365,59.43497,0
            24.79338,59.43492,0
            24.79319,59.43488,0
            24.79295,59.43483,0
            24.79268,59.43475,0
            24.79247,59.4347,0
            24.79221,59.43463,0
            24.79199,59.43456,0
            24.79176,59.43449,0
            24.79135,59.43434,0
            24.79096,59.43419,0
            24.79015,59.43391,0
            24.78879,59.43342,0
            24.788,59.43315,0
            24.78676,59.4327,0
            24.78656,59.43262,0
            24.78649,59.4326,0
            24.78598,59.43242,0
            24.78579,59.43238,0
            24.78529,59.43224,0
            24.78484,59.43215,0
            24.78446,59.43208,0
            24.78414,59.43205,0
            24.78385,59.43204,0
            24.78352,59.43206,0
            24.78329,59.43208,0
            24.78305,59.43209,0
            24.78273,59.43215,0
            24.78242,59.43222,0
            24.78222,59.43228,0
            24.78199,59.43237,0
            24.78181,59.43245,0
            24.78159,59.43253,0
            24.78147,59.43256,0
            24.7811,59.43264,0
            24.7807,59.4327,0
            24.78055,59.43271,0
            24.78029,59.43274,0
            24.77894,59.43293,0
            24.77879,59.43295,0
            24.77867,59.43296,0
            24.77849,59.43298,0
            24.77775,59.4331,0
            24.77716,59.43318,0
            24.77673,59.43323,0
            24.77657,59.43325,0
            24.77633,59.43327,0
            24.77559,59.43337,0
            24.7754,59.43339,0
            24.77405,59.43356,0
            24.77353,59.43363,0
            24.77252,59.43375,0
            24.77212,59.4338,0
            24.77155,59.43387,0
            24.77088,59.43396,0
            24.77015,59.43405,0
            24.76966,59.43411,0
            24.76914,59.43418,0
            24.76848,59.43426,0
            24.76828,59.43428,0
            24.76798,59.43432,0
            24.76773,59.43435,0
            24.76738,59.43439,0
            24.76706,59.43443,0
            24.76645,59.4345,0
            24.76574,59.43459,0
            24.76459,59.43473,0
            24.76448,59.43475,0
            24.76439,59.43476,0
            24.76426,59.43477,0
            24.76416,59.43478,0
            24.76369,59.43484,0
            24.76317,59.4349,0
            24.7631,59.43495,0
            24.76309,59.43496,0
            24.763,59.43497,0
            24.7625,59.43506,0
            24.76227,59.43509,0
            24.76195,59.43513,0
            24.76132,59.43521,0
            24.761,59.43525,0
            24.76084,59.43526,0
            24.76048,59.4353,0
            24.76012,59.43536,0
            24.75996,59.43539,0
            24.75932,59.43545,0
            24.7588,59.43552,0
            24.75834,59.43556,0
            24.75799,59.43559,0
            24.7578,59.4356,0
            24.75766,59.43559,0
            24.75749,59.43559,0
            24.75609,59.43557,0
            24.75587,59.43556,0
            24.75559,59.43555,0
            24.75525,59.43553,0
            24.75472,59.43551,0
            24.75451,59.4355,0
            24.75435,59.43548,0
            24.7543,59.43545,0
            24.75429,59.43544,0
            24.75428,59.43543,0
            24.75427,59.43541,0
            24.75415,59.4354,0
            24.75412,59.43538,0
            24.75402,59.43535,0
            24.75352,59.43517,0
            24.75329,59.43508,0
            24.75266,59.43486,0
            24.75264,59.43485,0
            24.75259,59.43483,0
            24.75216,59.43467,0
            24.75205,59.43463,0
            24.75196,59.4346,0
            24.75161,59.43446,0
            24.75103,59.43425,0
            24.75079,59.43416,0
            24.75057,59.43407,0
            24.75048,59.43404,0
            24.75031,59.43398,0
            24.75017,59.43393,0
            24.75003,59.43386,0
            24.74978,59.43371,0
            24.74955,59.43358,0
            24.74953,59.43357,0
            24.74932,59.43347,0
            24.74857,59.43305,0
            24.74842,59.43297,0
            24.7483,59.43294,0
            24.74803,59.4329,0
            24.74786,59.43289,0
            24.74766,59.43288,0
            24.74745,59.43289,0
            24.74733,59.4329,0
            24.74702,59.43292,0
            24.74622,59.43297,0
            24.74607,59.43298,0
            24.74597,59.43302,0
            24.74577,59.43305,0
            24.74532,59.43304,0
            24.74487,59.43307,0
            24.74472,59.43308,0
            24.74462,59.43309,0
            24.7436,59.43319,0
            24.74332,59.43321,0
            24.74321,59.43321,0
            24.74314,59.4332,0
            24.74308,59.43319,0
            24.743,59.43318,0
            24.74291,59.43315,0
            24.74282,59.43312,0
            24.74272,59.43309,0
            24.74261,59.43306,0
            24.74155,59.4328,0
            24.74138,59.43275,0
            24.74091,59.43262,0
            24.74024,59.43246,0
            24.74003,59.43243,0
            24.73989,59.4324,0
            24.7398,59.43238,0
            24.73957,59.43234,0
            24.73878,59.43219,0
            24.73858,59.43216,0
            24.73857,59.43215,0
            24.73803,59.43205,0
            24.73765,59.43198,0
            24.73756,59.43189,0
            24.73751,59.43184,0
            24.73747,59.43178,0
            24.73737,59.43166,0
            24.73729,59.43161,0
            24.73725,59.43156,0
            24.73721,59.43154,0
            24.73716,59.43152,0
            24.73691,59.43144,0
            24.73664,59.43139,0
            24.73609,59.43124,0
            24.73541,59.43108,0
            24.73493,59.43097,0
            24.73481,59.43094,0
            24.73306,59.43054,0
            24.73283,59.43049,0
            24.73253,59.43042,0
            24.7325,59.43042,0
            24.73195,59.43029,0
            24.73123,59.43013,0
            24.7308,59.43001,0
            24.73068,59.42998,0
            24.73044,59.42991,0
            24.73019,59.42984,0
            24.72947,59.42964,0
            24.72931,59.4296,0
            24.72915,59.42956,0
            24.7291,59.42955,0
            24.72865,59.42945,0
            24.72848,59.42941,0
            24.72823,59.42935,0
            24.72798,59.42928,0
            24.7277,59.42921,0
            24.72733,59.42912,0
            24.72697,59.42905,0
            24.72682,59.42901,0
            24.72656,59.4289,0
            24.72635,59.42881,0
            24.72606,59.42868,0
            24.726,59.42865,0
            24.72567,59.4285,0
            24.72537,59.4284,0
            24.72486,59.42827,0
            24.72484,59.42827,0
            24.72476,59.42825,0
            24.72389,59.42809,0
            24.72376,59.42807,0
            24.72351,59.42803,0
            24.72309,59.42795,0
            24.72303,59.42794,0
            24.72269,59.42788,0
            24.72208,59.42778,0
            24.72203,59.42777,0
            24.72153,59.42771,0
            24.72136,59.42764,0
            24.72128,59.42762,0
            24.72116,59.42759,0
            24.72105,59.42757,0
            24.72073,59.42751,0
            24.72037,59.42744,0
            24.72016,59.42739,0
            24.71995,59.42739,0
            24.71987,59.42729,0
            24.71977,59.42723,0
            24.71961,59.42713,0
            24.71939,59.427,0
            24.71928,59.42693,0
            24.71921,59.42689,0
            24.71916,59.42686,0
            24.71912,59.42683,0
            24.71908,59.4268,0
            24.719,59.42675,0
            24.71895,59.42671,0
            24.7189,59.42667,0
            24.71879,59.42656,0
            24.71868,59.42645,0
            24.71838,59.42614,0
            24.71827,59.42602,0
            24.71804,59.42575,0
            24.71775,59.42542,0
            24.7176,59.42521,0
            24.71743,59.42499,0
            24.7156,59.42292,0
            24.71515,59.42239,0
            24.71513,59.42236,0
            24.7147,59.42186,0
            24.71435,59.42146,0
            24.71425,59.42134,0
            24.7139,59.42094,0
            24.71389,59.42094,0
            24.71381,59.42085,0
            24.71366,59.42067,0
            24.71267,59.41953,0
            24.71259,59.41945,0
            24.71253,59.4194,0
            24.71244,59.41931,0
            24.71212,59.41893,0
            24.71199,59.41879,0
            24.71179,59.41855,0
            24.71176,59.41851,0
            24.71164,59.41838,0
            24.71058,59.41716,0
            24.71,59.41642,0
            24.70966,59.41593,0
            24.70931,59.41545,0
            24.70916,59.41525,0
            24.70902,59.41507,0
            24.7087,59.4146,0
            24.70861,59.41449,0
            24.70827,59.41401,0
            24.70798,59.4136,0
            24.70785,59.41342,0
            24.70751,59.41294,0
            24.7073,59.41298,0
            24.70711,59.41301,0
            24.70694,59.41305,0
            24.7068,59.41307,0
            24.70658,59.41311,0
            24.70609,59.4126,0
            24.70537,59.41178,0
          </coordinates>
        </LineString>
      </Placemark>
      <Placemark>
        <name>Kodu</name>
        <styleUrl>#icon-1899-DB4436-nodesc</styleUrl>
        <Point>
          <coordinates>
            24.891876,59.4475255,0
          </coordinates>
        </Point>
      </Placemark>
      <Placemark>
        <name>Techno TLN</name>
        <styleUrl>#icon-1899-DB4436-nodesc</styleUrl>
        <Point>
          <coordinates>
            24.7053735,59.4117824,0
          </coordinates>
        </Point>
      </Placemark>
    </Folder>
  </Document>
</kml>
